{"type": "FeatureCollection", "features": [{"type": "Feature", "properties": {"no": 1, "name": "Adtuyon ES", "barangay": "Adtuyon", "status": "done", "elig_mrtd": 53, "elig_hpv": 51, "mr": 43, "td": 0, "hpv_any": 43, "mr_pct": 81.1, "td_pct": 0.0, "hpv_pct": 84.3}, "geometry": {"type": "Point", "coordinates": [124.855706, 7.81513]}}, {"type": "Feature", "properties": {"no": 2, "name": "Jarque ES", "barangay": "Adtuyon", "status": "upcoming", "elig_mrtd": 15, "elig_hpv": 16, "mr": 0, "td": 0, "hpv_any": 0, "mr_pct": 0.0, "td_pct": 0.0, "hpv_pct": 0.0}, "geometry": {"type": "Point", "coordinates": [124.863306, 7.777158]}}, {"type": "Feature", "properties": {"no": 3, "name": "San Isidro ES", "barangay": "Adtuyon", "status": "done", "elig_mrtd": 33, "elig_hpv": 22, "mr": 13, "td": 14, "hpv_any": 20, "mr_pct": 39.4, "td_pct": 42.4, "hpv_pct": 90.9}, "geometry": {"type": "Point", "coordinates": [124.831021, 7.785618]}}, {"type": "Feature", "properties": {"no": 4, "name": "Barandias IS", "barangay": "Barandias", "status": "done", "elig_mrtd": 111, "elig_hpv": 70, "mr": 67, "td": 16, "hpv_any": 59, "mr_pct": 60.4, "td_pct": 14.4, "hpv_pct": 84.3}, "geometry": {"type": "Point", "coordinates": [124.784347, 7.823716]}}, {"type": "Feature", "properties": {"no": 5, "name": "Concepcion ES", "barangay": "Concepcion", "status": "done", "elig_mrtd": 19, "elig_hpv": 10, "mr": 13, "td": 0, "hpv_any": 5, "mr_pct": 68.4, "td_pct": 0.0, "hpv_pct": 50.0}, "geometry": {"type": "Point", "coordinates": [124.827627, 7.864554]}}, {"type": "Feature", "properties": {"no": 6, "name": "Kidanggin ES", "barangay": "Gandingan", "status": "ongoing", "elig_mrtd": 10, "elig_hpv": 7, "mr": 10, "td": 0, "hpv_any": 6, "mr_pct": 100.0, "td_pct": 0.0, "hpv_pct": 85.7}, "geometry": {"type": "Point", "coordinates": [124.807677, 7.764037]}}, {"type": "Feature", "properties": {"no": 7, "name": "San Miguel ES", "barangay": "Gandingan", "status": "done", "elig_mrtd": 15, "elig_hpv": 18, "mr": 13, "td": 0, "hpv_any": 13, "mr_pct": 86.7, "td_pct": 0.0, "hpv_pct": 72.2}, "geometry": {"type": "Point", "coordinates": [124.84605, 7.755067]}}, {"type": "Feature", "properties": {"no": 8, "name": "San Vicente ES", "barangay": "Lantay", "status": "ongoing", "elig_mrtd": 8, "elig_hpv": 6, "mr": 6, "td": 0, "hpv_any": 5, "mr_pct": 75.0, "td_pct": 0.0, "hpv_pct": 83.3}, "geometry": {"type": "Point", "coordinates": [124.810846, 7.79293]}}, {"type": "Feature", "properties": {"no": 9, "name": "Lantay ES", "barangay": "Lantay", "status": "done", "elig_mrtd": 53, "elig_hpv": 62, "mr": 36, "td": 0, "hpv_any": 53, "mr_pct": 67.9, "td_pct": 0.0, "hpv_pct": 85.5}, "geometry": {"type": "Point", "coordinates": [124.803688, 7.826551]}}, {"type": "Feature", "properties": {"no": 10, "name": "Mendiz ES", "barangay": "Mendis", "status": "done", "elig_mrtd": 72, "elig_hpv": 34, "mr": 32, "td": 24, "hpv_any": 28, "mr_pct": 44.4, "td_pct": 33.3, "hpv_pct": 82.4}, "geometry": {"type": "Point", "coordinates": [124.811651, 7.870925]}}, {"type": "Feature", "properties": {"no": 11, "name": "New Eden ES", "barangay": "New Eden", "status": "done", "elig_mrtd": 38, "elig_hpv": 23, "mr": 16, "td": 11, "hpv_any": 17, "mr_pct": 42.1, "td_pct": 28.9, "hpv_pct": 73.9}, "geometry": {"type": "Point", "coordinates": [124.837303, 7.879573]}}, {"type": "Feature", "properties": {"no": 12, "name": "Pangantucan CES", "barangay": "Poblacion", "status": "done", "elig_mrtd": 267, "elig_hpv": 270, "mr": 203, "td": 0, "hpv_any": 216, "mr_pct": 76.0, "td_pct": 0.0, "hpv_pct": 80.0}, "geometry": {"type": "Point", "coordinates": [124.830859, 7.828764]}}, {"type": "Feature", "properties": {"no": 13, "name": "Pangantucan NHS", "barangay": "Poblacion", "status": "ongoing", "elig_mrtd": 456, "elig_hpv": 0, "mr": 0, "td": 350, "hpv_any": 0, "mr_pct": 0.0, "td_pct": 76.8, "hpv_pct": 0.0}, "geometry": {"type": "Point", "coordinates": [124.833759, 7.835911]}}, {"type": "Feature", "properties": {"no": 14, "name": "Portulin ES", "barangay": "Portulin", "status": "done", "elig_mrtd": 21, "elig_hpv": 18, "mr": 15, "td": 0, "hpv_any": 16, "mr_pct": 71.4, "td_pct": 0.0, "hpv_pct": 88.9}, "geometry": {"type": "Point", "coordinates": [124.865492, 7.903146]}}, {"type": "Feature", "properties": {"no": 15, "name": "Sinasaan ES", "barangay": "Portulin", "status": "done", "elig_mrtd": 15, "elig_hpv": 15, "mr": 12, "td": 0, "hpv_any": 13, "mr_pct": 80.0, "td_pct": 0.0, "hpv_pct": 86.7}, "geometry": {"type": "Point", "coordinates": [124.866471, 7.863772]}}, {"type": "Feature", "properties": {"no": 16, "name": "Balogo ES", "barangay": "Langcataon", "status": "done", "elig_mrtd": 23, "elig_hpv": 17, "mr": 18, "td": 0, "hpv_any": 12, "mr_pct": 78.3, "td_pct": 0.0, "hpv_pct": 70.6}, "geometry": {"type": "Point", "coordinates": [124.863412, 7.609234]}}, {"type": "Feature", "properties": {"no": 17, "name": "Langcataon CES", "barangay": "Langcataon", "status": "done", "elig_mrtd": 40, "elig_hpv": 47, "mr": 31, "td": 0, "hpv_any": 38, "mr_pct": 77.5, "td_pct": 0.0, "hpv_pct": 80.9}, "geometry": {"type": "Point", "coordinates": [124.854361, 7.637753]}}, {"type": "Feature", "properties": {"no": 18, "name": "Langcataon NHS", "barangay": "Langcataon", "status": "upcoming", "elig_mrtd": 88, "elig_hpv": 0, "mr": 0, "td": 0, "hpv_any": 0, "mr_pct": 0.0, "td_pct": 0.0, "hpv_pct": 0.0}, "geometry": {"type": "Point", "coordinates": [124.853436, 7.633384]}}, {"type": "Feature", "properties": {"no": 19, "name": "Bangahan IS", "barangay": "Bangahan", "status": "done", "elig_mrtd": 110, "elig_hpv": 51, "mr": 35, "td": 48, "hpv_any": 40, "mr_pct": 31.8, "td_pct": 43.6, "hpv_pct": 78.4}, "geometry": {"type": "Point", "coordinates": [124.822807, 7.648653]}}, {"type": "Feature", "properties": {"no": 20, "name": "Upper Rancho ES (under Bangahan IS)", "barangay": "Bangahan", "status": "upcoming", "elig_mrtd": 13, "elig_hpv": 18, "mr": 0, "td": 0, "hpv_any": 0, "mr_pct": 0.0, "td_pct": 0.0, "hpv_pct": 0.0}, "geometry": {"type": "Point", "coordinates": [124.805439, 7.674525]}}, {"type": "Feature", "properties": {"no": 21, "name": "Kimanait ES", "barangay": "Kimanait", "status": "done", "elig_mrtd": 66, "elig_hpv": 75, "mr": 50, "td": 0, "hpv_any": 61, "mr_pct": 75.8, "td_pct": 0.0, "hpv_pct": 81.3}, "geometry": {"type": "Point", "coordinates": [124.841147, 7.575983]}}, {"type": "Feature", "properties": {"no": 22, "name": "Kimanait NHS", "barangay": "Kimanait", "status": "upcoming", "elig_mrtd": 86, "elig_hpv": 0, "mr": 0, "td": 0, "hpv_any": 0, "mr_pct": 0.0, "td_pct": 0.0, "hpv_pct": 0.0}, "geometry": {"type": "Point", "coordinates": [124.842863, 7.573731]}}, {"type": "Feature", "properties": {"no": 23, "name": "Pangadian T\u00e9 Apu Mansad\u00e9k", "barangay": "Kimanait", "status": "upcoming", "elig_mrtd": 8, "elig_hpv": 10, "mr": 0, "td": 0, "hpv_any": 0, "mr_pct": 0.0, "td_pct": 0.0, "hpv_pct": 0.0}, "geometry": {"type": "Point", "coordinates": [124.825328, 7.587751]}}, {"type": "Feature", "properties": {"no": 24, "name": "Kipaducan ES", "barangay": "Kipaducan", "status": "upcoming", "elig_mrtd": 22, "elig_hpv": 31, "mr": 0, "td": 0, "hpv_any": 0, "mr_pct": 0.0, "td_pct": 0.0, "hpv_pct": 0.0}, "geometry": {"type": "Point", "coordinates": [124.836827, 7.656496]}}, {"type": "Feature", "properties": {"no": 25, "name": "New Ilo-ilo ES", "barangay": "Kipaducan", "status": "upcoming", "elig_mrtd": 9, "elig_hpv": 3, "mr": 0, "td": 0, "hpv_any": 0, "mr_pct": 0.0, "td_pct": 0.0, "hpv_pct": 0.0}, "geometry": {"type": "Point", "coordinates": [124.81804, 7.710462]}}, {"type": "Feature", "properties": {"no": 26, "name": "Malipayon ES", "barangay": "Malipayon", "status": "done", "elig_mrtd": 74, "elig_hpv": 53, "mr": 53, "td": 0, "hpv_any": 42, "mr_pct": 71.6, "td_pct": 0.0, "hpv_pct": 79.2}, "geometry": {"type": "Point", "coordinates": [124.839019, 7.61675]}}, {"type": "Feature", "properties": {"no": 27, "name": "Payad ES", "barangay": "Payad", "status": "done", "elig_mrtd": 19, "elig_hpv": 12, "mr": 13, "td": 0, "hpv_any": 11, "mr_pct": 68.4, "td_pct": 0.0, "hpv_pct": 91.7}, "geometry": {"type": "Point", "coordinates": [124.854276, 7.564372]}}, {"type": "Feature", "properties": {"no": 28, "name": "Bacusanon CES", "barangay": "Bacusanon", "status": "done", "elig_mrtd": 97, "elig_hpv": 84, "mr": 79, "td": 0, "hpv_any": 73, "mr_pct": 81.4, "td_pct": 0.0, "hpv_pct": 86.9}, "geometry": {"type": "Point", "coordinates": [124.717242, 7.880394]}}, {"type": "Feature", "properties": {"no": 29, "name": "Bacusanon NHS", "barangay": "Bacusanon", "status": "done", "elig_mrtd": 195, "elig_hpv": 0, "mr": 0, "td": 158, "hpv_any": 0, "mr_pct": 0.0, "td_pct": 81.0, "hpv_pct": 0.0}, "geometry": {"type": "Point", "coordinates": [124.718642, 7.878605]}}, {"type": "Feature", "properties": {"no": 30, "name": "Quarry ES", "barangay": "Bacusanon", "status": "done", "elig_mrtd": 22, "elig_hpv": 25, "mr": 18, "td": 0, "hpv_any": 21, "mr_pct": 81.8, "td_pct": 0.0, "hpv_pct": 84.0}, "geometry": {"type": "Point", "coordinates": [124.705281, 7.892004]}}, {"type": "Feature", "properties": {"no": 31, "name": "San Guinto IS", "barangay": "Bacusanon", "status": "done", "elig_mrtd": 58, "elig_hpv": 27, "mr": 23, "td": 24, "hpv_any": 21, "mr_pct": 39.7, "td_pct": 41.4, "hpv_pct": 77.8}, "geometry": {"type": "Point", "coordinates": [124.729474, 7.909468]}}, {"type": "Feature", "properties": {"no": 32, "name": "Balmar ES", "barangay": "Nabaliwa", "status": "done", "elig_mrtd": 13, "elig_hpv": 15, "mr": 7, "td": 0, "hpv_any": 12, "mr_pct": 53.8, "td_pct": 0.0, "hpv_pct": 80.0}, "geometry": {"type": "Point", "coordinates": [124.741619, 7.898775]}}, {"type": "Feature", "properties": {"no": 33, "name": "Nabaliwa ES", "barangay": "Nabaliwa", "status": "ongoing", "elig_mrtd": 30, "elig_hpv": 37, "mr": 23, "td": 0, "hpv_any": 32, "mr_pct": 76.7, "td_pct": 0.0, "hpv_pct": 86.5}, "geometry": {"type": "Point", "coordinates": [124.747116, 7.870952]}}, {"type": "Feature", "properties": {"no": 34, "name": "Iliyan Te Apu M\u00e9nd\u00e9p\u00e9ten", "barangay": "Pigtauranan", "status": "done", "elig_mrtd": 10, "elig_hpv": 5, "mr": 10, "td": 0, "hpv_any": 5, "mr_pct": 100.0, "td_pct": 0.0, "hpv_pct": 100.0}, "geometry": {"type": "Point", "coordinates": [124.762942, 7.898333]}}, {"type": "Feature", "properties": {"no": 35, "name": "Pigtauranan ES", "barangay": "Pigtauranan", "status": "ongoing", "elig_mrtd": 132, "elig_hpv": 66, "mr": 57, "td": 37, "hpv_any": 55, "mr_pct": 43.2, "td_pct": 28.0, "hpv_pct": 83.3}, "geometry": {"type": "Point", "coordinates": [124.775204, 7.873679]}}, {"type": "Feature", "properties": {"no": 36, "name": "Madaya ES", "barangay": "Madaya", "status": "done", "elig_mrtd": 25, "elig_hpv": 42, "mr": 19, "td": 0, "hpv_any": 33, "mr_pct": 76.0, "td_pct": 0.0, "hpv_pct": 78.6}, "geometry": {"type": "Point", "coordinates": [124.76016, 7.839363]}}]}